[{"OBJECT_NAME":"STARLINK-2735","OBJECT_ID":"2021-044AF","EPOCH":"2026-03-09T10:34:56.803872","MEAN_MOTION":15.06408567,"ECCENTRICITY":0.00018221,"INCLINATION":53.054,"RA_OF_ASC_NODE":112.7364,"ARG_OF_PERICENTER":42.6547,"MEAN_ANOMALY":317.4583,"EPHEMERIS_TYPE":0,"CLASSIFICATION_TYPE":"U","NORAD_CAT_ID":48667,"ELEMENT_SET_NO":999,"REV_AT_EPOCH":26381,"BSTAR":0.00025303201,"MEAN_MOTION_DOT":3.49e-5,"MEAN_MOTION_DDOT":0},{"OBJECT_NAME":"FENGYUN 1C DEB","OBJECT_ID":"1999-025AQU","EPOCH":"2026-03-09T01:25:03.420768","MEAN_MOTION":14.74992504,"ECCENTRICITY":0.01405011,"INCLINATION":99.0317,"RA_OF_ASC_NODE":276.8472,"ARG_OF_PERICENTER":211.6472,"MEAN_ANOMALY":309.6318,"EPHEMERIS_TYPE":0,"CLASSIFICATION_TYPE":"U","NORAD_CAT_ID":30686,"ELEMENT_SET_NO":999,"REV_AT_EPOCH":874,"BSTAR":0.0010181927,"MEAN_MOTION_DOT":7.973e-5,"MEAN_MOTION_DDOT":0}]
